[{"OBJECT_NAME":"FLOCK 4BE-30","OBJECT_ID":"2024-149AH","EPOCH":"2026-04-05T04:27:44.099712","MEAN_MOTION":15.42853257,"ECCENTRICITY":0.00034819,"INCLINATION":97.3805,"RA_OF_ASC_NODE":179.1032,"ARG_OF_PERICENTER":206.5805,"MEAN_ANOMALY":153.5265,"EPHEMERIS_TYPE":0,"CLASSIFICATION_TYPE":"U","NORAD_CAT_ID":60499,"ELEMENT_SET_NO":999,"REV_AT_EPOCH":9047,"BSTAR":0.0023068725,"MEAN_MOTION_DOT":0.00102304,"MEAN_MOTION_DDOT":0},{"OBJECT_NAME":"FLOCK 4BE-11","OBJECT_ID":"2024-149AK","EPOCH":"2026-04-05T11:46:33.606336","MEAN_MOTION":15.40571879,"ECCENTRICITY":0.00047625,"INCLINATION":97.3712,"RA_OF_ASC_NODE":178.926,"ARG_OF_PERICENTER":163.2371,"MEAN_ANOMALY":196.9034,"EPHEMERIS_TYPE":0,"CLASSIFICATION_TYPE":"U","NORAD_CAT_ID":60501,"ELEMENT_SET_NO":999,"REV_AT_EPOCH":9115,"BSTAR":0.00061398901,"MEAN_MOTION_DOT":0.00024935,"MEAN_MOTION_DDOT":0},{"OBJECT_NAME":"FLOCK 4BE-24","OBJECT_ID":"2024-149AP","EPOCH":"2026-04-05T11:23:53.671200","MEAN_MOTION":15.40431027,"ECCENTRICITY":0.00047521,"INCLINATION":97.3725,"RA_OF_ASC_NODE":179.1554,"ARG_OF_PERICENTER":173.3923,"MEAN_ANOMALY":186.7387,"EPHEMERIS_TYPE":0,"CLASSIFICATION_TYPE":"U","NORAD_CAT_ID":60505,"ELEMENT_SET_NO":999,"REV_AT_EPOCH":9116,"BSTAR":0.00067131378,"MEAN_MOTION_DOT":0.00027153,"MEAN_MOTION_DDOT":0},{"OBJECT_NAME":"TANAGER-1","OBJECT_ID":"2024-149AR","EPOCH":"2026-04-05T12:45:41.410656","MEAN_MOTION":15.4383213,"ECCENTRICITY":0.00072615,"INCLINATION":97.3721,"RA_OF_ASC_NODE":189.2756,"ARG_OF_PERICENTER":196.9801,"MEAN_ANOMALY":163.1205,"EPHEMERIS_TYPE":0,"CLASSIFICATION_TYPE":"U","NORAD_CAT_ID":60507,"ELEMENT_SET_NO":999,"REV_AT_EPOCH":9182,"BSTAR":0.00039472086,"MEAN_MOTION_DOT":0.00017834,"MEAN_MOTION_DDOT":0},{"OBJECT_NAME":"FLOCK 4BE-29","OBJECT_ID":"2024-149AT","EPOCH":"2026-04-05T11:29:18.460032","MEAN_MOTION":15.41760485,"ECCENTRICITY":0.00032518,"INCLINATION":97.3812,"RA_OF_ASC_NODE":180.392,"ARG_OF_PERICENTER":175.0544,"MEAN_ANOMALY":185.0736,"EPHEMERIS_TYPE":0,"CLASSIFICATION_TYPE":"U","NORAD_CAT_ID":60509,"ELEMENT_SET_NO":999,"REV_AT_EPOCH":9120,"BSTAR":0.00062532911,"MEAN_MOTION_DOT":0.00026417,"MEAN_MOTION_DDOT":0},{"OBJECT_NAME":"FLOCK 4BE-2","OBJECT_ID":"2024-149AV","EPOCH":"2026-04-05T04:38:04.172640","MEAN_MOTION":15.45922349,"ECCENTRICITY":0.00043904,"INCLINATION":97.3823,"RA_OF_ASC_NODE":180.8224,"ARG_OF_PERICENTER":178.022,"MEAN_ANOMALY":182.1048,"EPHEMERIS_TYPE":0,"CLASSIFICATION_TYPE":"U","NORAD_CAT_ID":60511,"ELEMENT_SET_NO":999,"REV_AT_EPOCH":9120,"BSTAR":0.0011695048,"MEAN_MOTION_DOT":0.00057162,"MEAN_MOTION_DDOT":0},{"OBJECT_NAME":"FLOCK 4BE-13","OBJECT_ID":"2024-149AW","EPOCH":"2026-04-05T11:43:00.820416","MEAN_MOTION":15.39923554,"ECCENTRICITY":0.00048185,"INCLINATION":97.373,"RA_OF_ASC_NODE":179.2539,"ARG_OF_PERICENTER":159.3431,"MEAN_ANOMALY":200.801,"EPHEMERIS_TYPE":0,"CLASSIFICATION_TYPE":"U","NORAD_CAT_ID":60512,"ELEMENT_SET_NO":999,"REV_AT_EPOCH":9117,"BSTAR":0.00053034507,"MEAN_MOTION_DOT":0.00021062,"MEAN_MOTION_DDOT":0},{"OBJECT_NAME":"FLOCK 4BE-27","OBJECT_ID":"2024-149AX","EPOCH":"2026-04-05T10:51:28.129824","MEAN_MOTION":15.33210755,"ECCENTRICITY":0.00040736,"INCLINATION":97.3835,"RA_OF_ASC_NODE":177.3368,"ARG_OF_PERICENTER":182.6919,"MEAN_ANOMALY":177.4302,"EPHEMERIS_TYPE":0,"CLASSIFICATION_TYPE":"U","NORAD_CAT_ID":60513,"ELEMENT_SET_NO":999,"REV_AT_EPOCH":9099,"BSTAR":0.00039601176,"MEAN_MOTION_DOT":0.00012639,"MEAN_MOTION_DDOT":0},{"OBJECT_NAME":"FLOCK 4BE-9","OBJECT_ID":"2024-149AY","EPOCH":"2026-04-05T11:53:58.422048","MEAN_MOTION":15.38647127,"ECCENTRICITY":0.00034216,"INCLINATION":97.38,"RA_OF_ASC_NODE":179.1837,"ARG_OF_PERICENTER":175.2509,"MEAN_ANOMALY":184.8769,"EPHEMERIS_TYPE":0,"CLASSIFICATION_TYPE":"U","NORAD_CAT_ID":60514,"ELEMENT_SET_NO":999,"REV_AT_EPOCH":9113,"BSTAR":0.00055146586,"MEAN_MOTION_DOT":0.00021004,"MEAN_MOTION_DDOT":0},{"OBJECT_NAME":"FLOCK 4BE-6","OBJECT_ID":"2024-149BA","EPOCH":"2026-04-05T11:19:17.937696","MEAN_MOTION":15.37615545,"ECCENTRICITY":0.00041391,"INCLINATION":97.3798,"RA_OF_ASC_NODE":178.6438,"ARG_OF_PERICENTER":178.0524,"MEAN_ANOMALY":182.0737,"EPHEMERIS_TYPE":0,"CLASSIFICATION_TYPE":"U","NORAD_CAT_ID":60516,"ELEMENT_SET_NO":999,"REV_AT_EPOCH":9109,"BSTAR":0.00053110447,"MEAN_MOTION_DOT":0.00019557,"MEAN_MOTION_DDOT":0},{"OBJECT_NAME":"FLOCK 4BE-14","OBJECT_ID":"2024-149BB","EPOCH":"2026-04-05T04:35:04.665408","MEAN_MOTION":15.38776737,"ECCENTRICITY":0.0005086,"INCLINATION":97.3707,"RA_OF_ASC_NODE":178.4465,"ARG_OF_PERICENTER":181.1512,"MEAN_ANOMALY":178.9723,"EPHEMERIS_TYPE":0,"CLASSIFICATION_TYPE":"U","NORAD_CAT_ID":60517,"ELEMENT_SET_NO":999,"REV_AT_EPOCH":9109,"BSTAR":0.00062437184,"MEAN_MOTION_DOT":0.00023907,"MEAN_MOTION_DDOT":0},{"OBJECT_NAME":"FLOCK 4BE-1","OBJECT_ID":"2024-149BC","EPOCH":"2026-04-05T05:08:09.282048","MEAN_MOTION":15.4021695,"ECCENTRICITY":0.00047731,"INCLINATION":97.3788,"RA_OF_ASC_NODE":179.497,"ARG_OF_PERICENTER":180.714,"MEAN_ANOMALY":179.41,"EPHEMERIS_TYPE":0,"CLASSIFICATION_TYPE":"U","NORAD_CAT_ID":60518,"ELEMENT_SET_NO":999,"REV_AT_EPOCH":9113,"BSTAR":0.00064587811,"MEAN_MOTION_DOT":0.00025933,"MEAN_MOTION_DDOT":0},{"OBJECT_NAME":"FLOCK 4BE-28","OBJECT_ID":"2024-149BD","EPOCH":"2026-04-05T11:07:58.094112","MEAN_MOTION":15.42379287,"ECCENTRICITY":0.0004848,"INCLINATION":97.3752,"RA_OF_ASC_NODE":180.2569,"ARG_OF_PERICENTER":178.6021,"MEAN_ANOMALY":181.524,"EPHEMERIS_TYPE":0,"CLASSIFICATION_TYPE":"U","NORAD_CAT_ID":60519,"ELEMENT_SET_NO":999,"REV_AT_EPOCH":9122,"BSTAR":0.00067671756,"MEAN_MOTION_DOT":0.00029207,"MEAN_MOTION_DDOT":0},{"OBJECT_NAME":"FLOCK 4BE-35","OBJECT_ID":"2024-149CU","EPOCH":"2026-04-05T11:55:31.329696","MEAN_MOTION":15.49903673,"ECCENTRICITY":0.00058172,"INCLINATION":97.374,"RA_OF_ASC_NODE":179.2253,"ARG_OF_PERICENTER":196.2213,"MEAN_ANOMALY":163.8853,"EPHEMERIS_TYPE":0,"CLASSIFICATION_TYPE":"U","NORAD_CAT_ID":60558,"ELEMENT_SET_NO":999,"REV_AT_EPOCH":9114,"BSTAR":0.0023827317,"MEAN_MOTION_DOT":0.00135154,"MEAN_MOTION_DDOT":0},{"OBJECT_NAME":"FLOCK 4BE-5","OBJECT_ID":"2024-149CV","EPOCH":"2026-04-05T11:24:38.517120","MEAN_MOTION":15.38158133,"ECCENTRICITY":0.00037967,"INCLINATION":97.3849,"RA_OF_ASC_NODE":178.8938,"ARG_OF_PERICENTER":179.3501,"MEAN_ANOMALY":180.775,"EPHEMERIS_TYPE":0,"CLASSIFICATION_TYPE":"U","NORAD_CAT_ID":60559,"ELEMENT_SET_NO":999,"REV_AT_EPOCH":9109,"BSTAR":0.0006324423,"MEAN_MOTION_DOT":0.00023729,"MEAN_MOTION_DDOT":0},{"OBJECT_NAME":"FLOCK 4BE-12","OBJECT_ID":"2024-149CW","EPOCH":"2026-04-05T04:47:09.084480","MEAN_MOTION":15.541047,"ECCENTRICITY":0.00066765,"INCLINATION":97.3694,"RA_OF_ASC_NODE":179.7809,"ARG_OF_PERICENTER":201.9774,"MEAN_ANOMALY":158.1195,"EPHEMERIS_TYPE":0,"CLASSIFICATION_TYPE":"U","NORAD_CAT_ID":60560,"ELEMENT_SET_NO":999,"REV_AT_EPOCH":9117,"BSTAR":0.0026527793,"MEAN_MOTION_DOT":0.00175734,"MEAN_MOTION_DDOT":0}]
