FLOCK 4BE-30            
1 60499U 24149AH  26095.18592708  .00102304  00000+0  23069-2 0  9991
2 60499  97.3805 179.1032 0003481 206.5805 153.5265 15.42853257 90476
FLOCK 4BE-11            
1 60501U 24149AK  26095.49066674  .00024935  00000+0  61399-3 0  9999
2 60501  97.3712 178.9260 0004762 163.2371 196.9034 15.40571879 91153
FLOCK 4BE-24            
1 60505U 24149AP  26095.47492675  .00027153  00000+0  67131-3 0  9990
2 60505  97.3725 179.1554 0004752 173.3923 186.7387 15.40431027 91163
TANAGER-1               
1 60507U 24149AR  26095.53172929  .00017834  00000+0  39472-3 0  9998
2 60507  97.3721 189.2756 0007261 196.9801 163.1205 15.43832130 91825
FLOCK 4BE-29            
1 60509U 24149AT  26095.47868588  .00026417  00000+0  62533-3 0  9997
2 60509  97.3812 180.3920 0003251 175.0544 185.0736 15.41760485 91205
FLOCK 4BE-2             
1 60511U 24149AV  26095.19310385  .00057162  00000+0  11695-2 0  9999
2 60511  97.3823 180.8224 0004390 178.0220 182.1048 15.45922349 91208
FLOCK 4BE-13            
1 60512U 24149AW  26095.48820394  .00021062  00000+0  53035-3 0  9993
2 60512  97.3730 179.2539 0004818 159.3431 200.8010 15.39923554 91173
FLOCK 4BE-27            
1 60513U 24149AX  26095.45240891  .00012639  00000+0  39601-3 0  9992
2 60513  97.3835 177.3368 0004073 182.6919 177.4302 15.33210755 90990
FLOCK 4BE-9             
1 60514U 24149AY  26095.49581507  .00021004  00000+0  55147-3 0  9998
2 60514  97.3800 179.1837 0003421 175.2509 184.8769 15.38647127 91131
FLOCK 4BE-6             
1 60516U 24149BA  26095.47173539  .00019557  00000+0  53110-3 0  9998
2 60516  97.3798 178.6438 0004139 178.0524 182.0737 15.37615545 91093
FLOCK 4BE-14            
1 60517U 24149BB  26095.19102622  .00023907  00000+0  62437-3 0  9999
2 60517  97.3707 178.4465 0005086 181.1512 178.9723 15.38776737 91097
FLOCK 4BE-1             
1 60518U 24149BC  26095.21399632  .00025933  00000+0  64588-3 0  9992
2 60518  97.3788 179.4970 0004773 180.7140 179.4100 15.40216950 91132
FLOCK 4BE-28            
1 60519U 24149BD  26095.46386683  .00029207  00000+0  67672-3 0  9997
2 60519  97.3752 180.2569 0004848 178.6021 181.5240 15.42379287 91229
FLOCK 4BE-35            
1 60558U 24149CU  26095.49689039  .00135154  00000+0  23827-2 0  9996
2 60558  97.3740 179.2253 0005817 196.2213 163.8853 15.49903673 91146
FLOCK 4BE-5             
1 60559U 24149CV  26095.47544580  .00023729  00000+0  63244-3 0  9998
2 60559  97.3849 178.8938 0003796 179.3501 180.7750 15.38158133 91097
FLOCK 4BE-12            
1 60560U 24149CW  26095.19941070  .00175734  00000+0  26528-2 0  9991
2 60560  97.3694 179.7809 0006676 201.9774 158.1195 15.54104700 91178
